[{"OBJECT_NAME":"STARK","OBJECT_ID":"2025-185C","EPOCH":"2026-03-09T19:23:11.035968","MEAN_MOTION":14.78690029,"ECCENTRICITY":0.00098781,"INCLINATION":97.9576,"RA_OF_ASC_NODE":153.2747,"ARG_OF_PERICENTER":62.8418,"MEAN_ANOMALY":297.3799,"EPHEMERIS_TYPE":0,"CLASSIFICATION_TYPE":"U","NORAD_CAT_ID":65299,"ELEMENT_SET_NO":999,"REV_AT_EPOCH":2915,"BSTAR":0.0003503119,"MEAN_MOTION_DOT":2.519e-5,"MEAN_MOTION_DDOT":0},{"OBJECT_NAME":"KUIPER-00120","OBJECT_ID":"2025-217A","EPOCH":"2026-03-09T09:39:14.260896","MEAN_MOTION":14.79937882,"ECCENTRICITY":7.237e-5,"INCLINATION":51.8993,"RA_OF_ASC_NODE":54.339,"ARG_OF_PERICENTER":91.7416,"MEAN_ANOMALY":268.363,"EPHEMERIS_TYPE":0,"CLASSIFICATION_TYPE":"U","NORAD_CAT_ID":65762,"ELEMENT_SET_NO":999,"REV_AT_EPOCH":2469,"BSTAR":0.00067951677,"MEAN_MOTION_DOT":4.963e-5,"MEAN_MOTION_DDOT":0}]
