STARK                   
1 65299U 25185C   26068.80776662  .00002519  00000+0  35031-3 0  9997
2 65299  97.9576 153.2747 0009878  62.8418 297.3799 14.78690029 29155
KUIPER-00120            
1 65762U 25217A   26068.40224839  .00004963  00000+0  67952-3 0  9990
2 65762  51.8993  54.3390 0000723  91.7416 268.3630 14.79937882 24694
